{"type": "FeatureCollection", "features": [ {"type": "Feature", "properties": {"norad_id": 37331, "name": "COSMOS 2251 DEB", "group": "cosmos-2251-debris", "lat": 5.394353506022442, "lon": -116.85365682846628, "alt_km": 780.511386436784, "timestamp": "2025-12-14T11:29:50.458076+00:00", "meta": {"OBJECT_NAME": "COSMOS 2251 DEB", "OBJECT_ID": "1993-036BKX", "EPOCH": "2025-12-11T12:25:22.057824", "MEAN_MOTION": 14.35017786, "ECCENTRICITY": 0.00551462, "INCLINATION": 74.0753, "RA_OF_ASC_NODE": 70.1043, "ARG_OF_PERICENTER": 84.7821, "MEAN_ANOMALY": 275.9621, "EPHEMERIS_TYPE": 0, "CLASSIFICATION_TYPE": "U", "NORAD_CAT_ID": 37331, "ELEMENT_SET_NO": 999, "REV_AT_EPOCH": 84742, "BSTAR": 0.00087412391, "MEAN_MOTION_DOT": 2.509e-05, "MEAN_MOTION_DDOT": 0}, "tle": {"line1": "1 37331U 93036BKX 25345.51761641  .00002509  00000+0  87412-3 0  9998", "line2": "2 37331  74.0753  70.1043 0055146  84.7821 275.9621 14.35017786847420"}}, "geometry": {"type": "Point", "coordinates": [-116.85365682846628, 5.394353506022442]}}, {"type": "Feature", "properties": {"norad_id": 37336, "name": "COSMOS 2251 DEB", "group": "cosmos-2251-debris", "lat": 37.84312924600905, "lon": 135.1940836215038, "alt_km": 781.0913339031395, "timestamp": "2025-12-14T11:29:50.458086+00:00", "meta": {"OBJECT_NAME": "COSMOS 2251 DEB", "OBJECT_ID": "1993-036BLC", "EPOCH": "2025-12-12T16:57:13.021344", "MEAN_MOTION": 14.32758619, "ECCENTRICITY": 0.002885, "INCLINATION": 74.0411, "RA_OF_ASC_NODE": 331.2736, "ARG_OF_PERICENTER": 49.0239, "MEAN_ANOMALY": 311.3401, "EPHEMERIS_TYPE": 0, "CLASSIFICATION_TYPE": "U", "NORAD_CAT_ID": 37336, "ELEMENT_SET_NO": 999, "REV_AT_EPOCH": 65119, "BSTAR": 0.0001234592, "MEAN_MOTION_DOT": 3.12e-06, "MEAN_MOTION_DDOT": 0}, "tle": {"line1": "1 37336U 93036BLC 25346.70640071  .00000312  00000+0  12346-3 0  9992", "line2": "2 37336  74.0411 331.2736 0028850  49.0239 311.3401 14.32758619651197"}}, "geometry": {"type": "Point", "coordinates": [135.1940836215038, 37.84312924600905]}}, {"type": "Feature", "properties": {"norad_id": 37340, "name": "COSMOS 2251 DEB", "group": "cosmos-2251-debris", "lat": 25.06095978984164, "lon": -78.34677031023179, "alt_km": 755.4584226318984, "timestamp": "2025-12-14T11:29:50.458095+00:00", "meta": {"OBJECT_NAME": "COSMOS 2251 DEB", "OBJECT_ID": "1993-036BLG", "EPOCH": "2025-12-13T01:57:30.434400", "MEAN_MOTION": 14.36923896, "ECCENTRICITY": 0.00177782, "INCLINATION": 74.0254, "RA_OF_ASC_NODE": 276.5255, "ARG_OF_PERICENTER": 11.3919, "MEAN_ANOMALY": 348.7633, "EPHEMERIS_TYPE": 0, "CLASSIFICATION_TYPE": "U", "NORAD_CAT_ID": 37340, "ELEMENT_SET_NO": 999, "REV_AT_EPOCH": 84072, "BSTAR": 0.0003082543, "MEAN_MOTION_DOT": 8.88e-06, "MEAN_MOTION_DDOT": 0}, "tle": {"line1": "1 37340U 93036BLG 25347.08160225  .00000888  00000+0  30825-3 0  9997", "line2": "2 37340  74.0254 276.5255 0017778  11.3919 348.7633 14.36923896840723"}}, "geometry": {"type": "Point", "coordinates": [-78.34677031023179, 25.06095978984164]}}, {"type": "Feature", "properties": {"norad_id": 37483, "name": "COSMOS 2251 DEB", "group": "cosmos-2251-debris", "lat": -0.20069588449002018, "lon": -39.85123867610655, "alt_km": 813.7590787214658, "timestamp": "2025-12-14T11:29:50.458105+00:00", "meta": {"OBJECT_NAME": "COSMOS 2251 DEB", "OBJECT_ID": "1993-036BLL", "EPOCH": "2025-12-12T20:24:34.200576", "MEAN_MOTION": 14.43556839, "ECCENTRICITY": 0.00930932, "INCLINATION": 73.973, "RA_OF_ASC_NODE": 143.1287, "ARG_OF_PERICENTER": 349.6034, "MEAN_ANOMALY": 10.3194, "EPHEMERIS_TYPE": 0, "CLASSIFICATION_TYPE": "U", "NORAD_CAT_ID": 37483, "ELEMENT_SET_NO": 999, "REV_AT_EPOCH": 65281, "BSTAR": 0.00032856989, "MEAN_MOTION_DOT": 1.144e-05, "MEAN_MOTION_DDOT": 0}, "tle": {"line1": "1 37483U 93036BLL 25346.85039584  .00001144  00000+0  32857-3 0  9995", "line2": "2 37483  73.9730 143.1287 0093093 349.6034  10.3194 14.43556839652813"}}, "geometry": {"type": "Point", "coordinates": [-39.85123867610655, -0.20069588449002018]}}, {"type": "Feature", "properties": {"norad_id": 37484, "name": "COSMOS 2251 DEB", "group": "cosmos-2251-debris", "lat": 54.60179051150651, "lon": -130.71525218727308, "alt_km": 775.2808849405674, "timestamp": "2025-12-14T11:29:50.458116+00:00", "meta": {"OBJECT_NAME": "COSMOS 2251 DEB", "OBJECT_ID": "1993-036BLM", "EPOCH": "2025-12-13T09:24:26.834400", "MEAN_MOTION": 14.41788664, "ECCENTRICITY": 0.00396324, "INCLINATION": 73.8238, "RA_OF_ASC_NODE": 207.2158, "ARG_OF_PERICENTER": 242.044, "MEAN_ANOMALY": 295.8925, "EPHEMERIS_TYPE": 0, "CLASSIFICATION_TYPE": "U", "NORAD_CAT_ID": 37484, "ELEMENT_SET_NO": 999, "REV_AT_EPOCH": 65388, "BSTAR": 0.0010361037, "MEAN_MOTION_DOT": 3.39e-05, "MEAN_MOTION_DDOT": 0}, "tle": {"line1": "1 37484U 93036BLM 25347.39197725  .00003390  00000+0  10361-2 0  9998", "line2": "2 37484  73.8238 207.2158 0039632 242.0440 295.8925 14.41788664653882"}}, "geometry": {"type": "Point", "coordinates": [-130.71525218727308, 54.60179051150651]}}, {"type": "Feature", "properties": {"norad_id": 37486, "name": "COSMOS 2251 DEB", "group": "cosmos-2251-debris", "lat": 37.95409205566065, "lon": -81.74607843456302, "alt_km": 1000.9341734767322, "timestamp": "2025-12-14T11:29:50.458125+00:00", "meta": {"OBJECT_NAME": "COSMOS 2251 DEB", "OBJECT_ID": "1993-036BLP", "EPOCH": "2025-12-13T01:24:59.270976", "MEAN_MOTION": 14.1332704, "ECCENTRICITY": 0.02295334, "INCLINATION": 73.6912, "RA_OF_ASC_NODE": 114.021, "ARG_OF_PERICENTER": 342.0741, "MEAN_ANOMALY": 134.7179, "EPHEMERIS_TYPE": 0, "CLASSIFICATION_TYPE": "U", "NORAD_CAT_ID": 37486, "ELEMENT_SET_NO": 999, "REV_AT_EPOCH": 63374, "BSTAR": 0.0028356833, "MEAN_MOTION_DOT": 6.817e-05, "MEAN_MOTION_DDOT": 0}, "tle": {"line1": "1 37486U 93036BLP 25347.05901934  .00006817  00000+0  28357-2 0  9999", "line2": "2 37486  73.6912 114.0210 0229533 342.0741 134.7179 14.13327040633742"}}, "geometry": {"type": "Point", "coordinates": [-81.74607843456302, 37.95409205566065]}}, {"type": "Feature", "properties": {"norad_id": 37487, "name": "COSMOS 2251 DEB", "group": "cosmos-2251-debris", "lat": -60.16700735477914, "lon": 158.39391800859804, "alt_km": 632.7411309206018, "timestamp": "2025-12-14T11:29:50.458135+00:00", "meta": {"OBJECT_NAME": "COSMOS 2251 DEB", "OBJECT_ID": "1993-036BLQ", "EPOCH": "2025-12-12T06:17:24.389376", "MEAN_MOTION": 14.80982589, "ECCENTRICITY": 0.00255931, "INCLINATION": 73.9026, "RA_OF_ASC_NODE": 193.0379, "ARG_OF_PERICENTER": 31.2136, "MEAN_ANOMALY": 329.0553, "EPHEMERIS_TYPE": 0, "CLASSIFICATION_TYPE": "U", "NORAD_CAT_ID": 37487, "ELEMENT_SET_NO": 999, "REV_AT_EPOCH": 81238, "BSTAR": 0.0042593386, "MEAN_MOTION_DOT": 0.00033302, "MEAN_MOTION_DDOT": 0}, "tle": {"line1": "1 37487U 93036BLQ 25346.26208784  .00033302  00000+0  42593-2 0  9992", "line2": "2 37487  73.9026 193.0379 0025593  31.2136 329.0553 14.80982589812383"}}, "geometry": {"type": "Point", "coordinates": [158.39391800859804, -60.16700735477914]}}, {"type": "Feature", "properties": {"norad_id": 37491, "name": "COSMOS 2251 DEB", "group": "cosmos-2251-debris", "lat": 62.76423696800287, "lon": 57.05857238323463, "alt_km": 1178.0392003610914, "timestamp": "2025-12-14T11:29:50.458146+00:00", "meta": {"OBJECT_NAME": "COSMOS 2251 DEB", "OBJECT_ID": "1993-036BLU", "EPOCH": "2025-12-13T01:45:30.730176", "MEAN_MOTION": 13.75293127, "ECCENTRICITY": 0.0317327, "INCLINATION": 73.9056, "RA_OF_ASC_NODE": 273.5324, "ARG_OF_PERICENTER": 266.5527, "MEAN_ANOMALY": 89.9253, "EPHEMERIS_TYPE": 0, "CLASSIFICATION_TYPE": "U", "NORAD_CAT_ID": 37491, "ELEMENT_SET_NO": 999, "REV_AT_EPOCH": 55751, "BSTAR": 0.0017222732, "MEAN_MOTION_DOT": 2.36e-05, "MEAN_MOTION_DDOT": 0}, "tle": {"line1": "1 37491U 93036BLU 25347.07327234  .00002360  00000+0  17223-2 0  9991", "line2": "2 37491  73.9056 273.5324 0317327 266.5527  89.9253 13.75293127557517"}}, "geometry": {"type": "Point", "coordinates": [57.05857238323463, 62.76423696800287]}}, {"type": "Feature", "properties": {"norad_id": 37498, "name": "COSMOS 2251 DEB", "group": "cosmos-2251-debris", "lat": -57.8406018885486, "lon": 153.51191235142613, "alt_km": 712.014975814076, "timestamp": "2025-12-14T11:29:50.458156+00:00", "meta": {"OBJECT_NAME": "COSMOS 2251 DEB", "OBJECT_ID": "1993-036BMB", "EPOCH": "2025-12-10T07:06:15.238080", "MEAN_MOTION": 14.54745919, "ECCENTRICITY": 0.0012071, "INCLINATION": 74.0358, "RA_OF_ASC_NODE": 188.5072, "ARG_OF_PERICENTER": 251.507, "MEAN_ANOMALY": 108.4781, "EPHEMERIS_TYPE": 0, "CLASSIFICATION_TYPE": "U", "NORAD_CAT_ID": 37498, "ELEMENT_SET_NO": 999, "REV_AT_EPOCH": 65319, "BSTAR": 0.0008921, "MEAN_MOTION_DOT": 3.798e-05, "MEAN_MOTION_DDOT": 0}, "tle": {"line1": "1 37498U 93036BMB 25344.29600970  .00003798  00000+0  89210-3 0  9992", "line2": "2 37498  74.0358 188.5072 0012071 251.5070 108.4781 14.54745919653194"}}, "geometry": {"type": "Point", "coordinates": [153.51191235142613, -57.8406018885486]}}, {"type": "Feature", "properties": {"norad_id": 37499, "name": "COSMOS 2251 DEB", "group": "cosmos-2251-debris", "lat": 21.791699435856007, "lon": -34.422812598627154, "alt_km": 757.7624972049753, "timestamp": "2025-12-14T11:29:50.458166+00:00", "meta": {"OBJECT_NAME": "COSMOS 2251 DEB", "OBJECT_ID": "1993-036BMC", "EPOCH": "2025-12-13T08:36:35.238816", "MEAN_MOTION": 14.34343404, "ECCENTRICITY": 0.00269566, "INCLINATION": 74.0377, "RA_OF_ASC_NODE": 321.0565, "ARG_OF_PERICENTER": 36.8759, "MEAN_ANOMALY": 323.424, "EPHEMERIS_TYPE": 0, "CLASSIFICATION_TYPE": "U", "NORAD_CAT_ID": 37499, "ELEMENT_SET_NO": 999, "REV_AT_EPOCH": 85158, "BSTAR": 0.00026863635, "MEAN_MOTION_DOT": 7.32e-06, "MEAN_MOTION_DDOT": 0}, "tle": {"line1": "1 37499U 93036BMC 25347.35874119  .00000732  00000+0  26864-3 0  9992", "line2": "2 37499  74.0377 321.0565 0026956  36.8759 323.4240 14.34343404851585"}}, "geometry": {"type": "Point", "coordinates": [-34.422812598627154, 21.791699435856007]}}]}